{"type": "FeatureCollection", "features": [ {"type": "Feature", "properties": {"norad_id": 66593, "name": "STARLINK-36031", "group": "last-30-days", "lat": 42.46229561438639, "lon": -37.62502727704829, "alt_km": 336.10394215604265, "timestamp": "2025-12-04T05:42:42.159233+00:00", "meta": {"OBJECT_NAME": "STARLINK-36031", "OBJECT_ID": "2025-270F", "EPOCH": "2025-12-03T18:43:24.870144", "MEAN_MOTION": 15.76634833, "ECCENTRICITY": 0.00057342, "INCLINATION": 42.9977, "RA_OF_ASC_NODE": 246.004, "ARG_OF_PERICENTER": 238.2252, "MEAN_ANOMALY": 121.8059, "EPHEMERIS_TYPE": 0, "CLASSIFICATION_TYPE": "U", "NORAD_CAT_ID": 66593, "ELEMENT_SET_NO": 999, "REV_AT_EPOCH": 294, "BSTAR": 0.0015874679, "MEAN_MOTION_DOT": 0.00269762, "MEAN_MOTION_DDOT": 0}, "tle": {"line1": "1 66593U 25270F   25337.78014896  .00269762  00000+0  15875-2 0  9997", "line2": "2 66593  42.9977 246.0040 0005734 238.2252 121.8059 15.76634833  2945"}}, "geometry": {"type": "Point", "coordinates": [-37.62502727704829, 42.46229561438639]}}, {"type": "Feature", "properties": {"norad_id": 66594, "name": "STARLINK-36032", "group": "last-30-days", "lat": 42.423906931003934, "lon": -15.568619317636381, "alt_km": 331.5220400412727, "timestamp": "2025-12-04T05:42:42.159243+00:00", "meta": {"OBJECT_NAME": "STARLINK-36032", "OBJECT_ID": "2025-270G", "EPOCH": "2025-12-03T11:03:46.188000", "MEAN_MOTION": 15.77552045, "ECCENTRICITY": 0.00027602, "INCLINATION": 42.9994, "RA_OF_ASC_NODE": 247.9083, "ARG_OF_PERICENTER": 345.9506, "MEAN_ANOMALY": 14.1287, "EPHEMERIS_TYPE": 0, "CLASSIFICATION_TYPE": "U", "NORAD_CAT_ID": 66594, "ELEMENT_SET_NO": 999, "REV_AT_EPOCH": 270, "BSTAR": -0.00050035388, "MEAN_MOTION_DOT": -0.00085551, "MEAN_MOTION_DDOT": 0}, "tle": {"line1": "1 66594U 25270G   25337.46095125 -.00085551  00000+0 -50035-3 0  9999", "line2": "2 66594  42.9994 247.9083 0002760 345.9506  14.1287 15.77552045  2702"}}, "geometry": {"type": "Point", "coordinates": [-15.568619317636381, 42.423906931003934]}}, {"type": "Feature", "properties": {"norad_id": 66595, "name": "STARLINK-35711", "group": "last-30-days", "lat": 42.614845788293344, "lon": -35.902598041964154, "alt_km": 341.23842991993024, "timestamp": "2025-12-04T05:42:42.159253+00:00", "meta": {"OBJECT_NAME": "STARLINK-35711", "OBJECT_ID": "2025-270H", "EPOCH": "2025-12-03T08:00:01.999872", "MEAN_MOTION": 15.77519386, "ECCENTRICITY": 0.00017941, "INCLINATION": 42.9989, "RA_OF_ASC_NODE": 248.7112, "ARG_OF_PERICENTER": 269.6847, "MEAN_ANOMALY": 75.1247, "EPHEMERIS_TYPE": 0, "CLASSIFICATION_TYPE": "U", "NORAD_CAT_ID": 66595, "ELEMENT_SET_NO": 999, "REV_AT_EPOCH": 299, "BSTAR": -0.010919895, "MEAN_MOTION_DOT": -0.01661351, "MEAN_MOTION_DDOT": 0}, "tle": {"line1": "1 66595U 25270H   25337.33335648 -.01661351  00000+0 -10920-1 0  9999", "line2": "2 66595  42.9989 248.7112 0001794 269.6847  75.1247 15.77519386  2990"}}, "geometry": {"type": "Point", "coordinates": [-35.902598041964154, 42.614845788293344]}}, {"type": "Feature", "properties": {"norad_id": 66596, "name": "STARLINK-35811", "group": "last-30-days", "lat": 42.78929943158244, "lon": -33.366574769357875, "alt_km": 341.2784896984813, "timestamp": "2025-12-04T05:42:42.159263+00:00", "meta": {"OBJECT_NAME": "STARLINK-35811", "OBJECT_ID": "2025-270J", "EPOCH": "2025-12-03T08:00:01.999872", "MEAN_MOTION": 15.77481419, "ECCENTRICITY": 0.00017091, "INCLINATION": 42.9988, "RA_OF_ASC_NODE": 248.7061, "ARG_OF_PERICENTER": 274.7998, "MEAN_ANOMALY": 72.0379, "EPHEMERIS_TYPE": 0, "CLASSIFICATION_TYPE": "U", "NORAD_CAT_ID": 66596, "ELEMENT_SET_NO": 999, "REV_AT_EPOCH": 299, "BSTAR": -0.011012002, "MEAN_MOTION_DOT": -0.01671161, "MEAN_MOTION_DDOT": 0}, "tle": {"line1": "1 66596U 25270J   25337.33335648 -.01671161  00000+0 -11012-1 0  9993", "line2": "2 66596  42.9988 248.7061 0001709 274.7998  72.0379 15.77481419  2990"}}, "geometry": {"type": "Point", "coordinates": [-33.366574769357875, 42.78929943158244]}}, {"type": "Feature", "properties": {"norad_id": 66597, "name": "STARLINK-35820", "group": "last-30-days", "lat": 42.423906667986806, "lon": -15.568616665825935, "alt_km": 331.5220401436245, "timestamp": "2025-12-04T05:42:42.159273+00:00", "meta": {"OBJECT_NAME": "STARLINK-35820", "OBJECT_ID": "2025-270K", "EPOCH": "2025-12-03T11:03:46.188000", "MEAN_MOTION": 15.77552045, "ECCENTRICITY": 0.00027602, "INCLINATION": 42.9994, "RA_OF_ASC_NODE": 247.9083, "ARG_OF_PERICENTER": 345.9506, "MEAN_ANOMALY": 14.1287, "EPHEMERIS_TYPE": 0, "CLASSIFICATION_TYPE": "U", "NORAD_CAT_ID": 66597, "ELEMENT_SET_NO": 999, "REV_AT_EPOCH": 300, "BSTAR": -0.00050035314, "MEAN_MOTION_DOT": -0.00085551, "MEAN_MOTION_DDOT": 0}, "tle": {"line1": "1 66597U 25270K   25337.46095125 -.00085551  00000+0 -50035-3 0  9992", "line2": "2 66597  42.9994 247.9083 0002760 345.9506  14.1287 15.77552045  3009"}}, "geometry": {"type": "Point", "coordinates": [-15.568616665825935, 42.423906667986806]}}, {"type": "Feature", "properties": {"norad_id": 66598, "name": "STARLINK-35981", "group": "last-30-days", "lat": 42.94440146319038, "lon": -23.9819315519079, "alt_km": 339.474352123917, "timestamp": "2025-12-04T05:42:42.159283+00:00", "meta": {"OBJECT_NAME": "STARLINK-35981", "OBJECT_ID": "2025-270L", "EPOCH": "2025-12-03T18:40:28.685856", "MEAN_MOTION": 15.76890341, "ECCENTRICITY": 0.00095128, "INCLINATION": 43, "RA_OF_ASC_NODE": 245.987, "ARG_OF_PERICENTER": 351.9264, "MEAN_ANOMALY": 8.1451, "EPHEMERIS_TYPE": 0, "CLASSIFICATION_TYPE": "U", "NORAD_CAT_ID": 66598, "ELEMENT_SET_NO": 999, "REV_AT_EPOCH": 278, "BSTAR": -0.015966954, "MEAN_MOTION_DOT": -0.02319445, "MEAN_MOTION_DDOT": 0}, "tle": {"line1": "1 66598U 25270L   25337.77810979 -.02319445  00000+0 -15967-1 0  9996", "line2": "2 66598  43.0000 245.9870 0009512 351.9264   8.1451 15.76890341  2785"}}, "geometry": {"type": "Point", "coordinates": [-23.9819315519079, 42.94440146319038]}}, {"type": "Feature", "properties": {"norad_id": 66599, "name": "STARLINK-35930", "group": "last-30-days", "lat": 42.93290197118259, "lon": -23.606516634926855, "alt_km": 337.6717789515733, "timestamp": "2025-12-04T05:42:42.159300+00:00", "meta": {"OBJECT_NAME": "STARLINK-35930", "OBJECT_ID": "2025-270M", "EPOCH": "2025-12-03T18:40:26.436864", "MEAN_MOTION": 15.76217691, "ECCENTRICITY": 0.00028669, "INCLINATION": 42.9984, "RA_OF_ASC_NODE": 245.9868, "ARG_OF_PERICENTER": 319.5998, "MEAN_ANOMALY": 40.4658, "EPHEMERIS_TYPE": 0, "CLASSIFICATION_TYPE": "U", "NORAD_CAT_ID": 66599, "ELEMENT_SET_NO": 999, "REV_AT_EPOCH": 294, "BSTAR": -0.0051105059, "MEAN_MOTION_DOT": -0.00757535, "MEAN_MOTION_DDOT": 0}, "tle": {"line1": "1 66599U 25270M   25337.77808376 -.00757535  00000+0 -51105-2 0  9994", "line2": "2 66599  42.9984 245.9868 0002866 319.5998  40.4658 15.76217691  2948"}}, "geometry": {"type": "Point", "coordinates": [-23.606516634926855, 42.93290197118259]}}, {"type": "Feature", "properties": {"norad_id": 66600, "name": "STARLINK-35980", "group": "last-30-days", "lat": 42.42390634359913, "lon": -15.56861339526135, "alt_km": 331.522040269866, "timestamp": "2025-12-04T05:42:42.159310+00:00", "meta": {"OBJECT_NAME": "STARLINK-35980", "OBJECT_ID": "2025-270N", "EPOCH": "2025-12-03T11:03:46.188000", "MEAN_MOTION": 15.77552045, "ECCENTRICITY": 0.00027602, "INCLINATION": 42.9994, "RA_OF_ASC_NODE": 247.9083, "ARG_OF_PERICENTER": 345.9506, "MEAN_ANOMALY": 14.1287, "EPHEMERIS_TYPE": 0, "CLASSIFICATION_TYPE": "U", "NORAD_CAT_ID": 66600, "ELEMENT_SET_NO": 999, "REV_AT_EPOCH": 279, "BSTAR": -0.00050035388, "MEAN_MOTION_DOT": -0.00085551, "MEAN_MOTION_DDOT": 0}, "tle": {"line1": "1 66600U 25270N   25337.46095125 -.00085551  00000+0 -50035-3 0  9997", "line2": "2 66600  42.9994 247.9083 0002760 345.9506  14.1287 15.77552045  2799"}}, "geometry": {"type": "Point", "coordinates": [-15.56861339526135, 42.42390634359913]}}, {"type": "Feature", "properties": {"norad_id": 66601, "name": "STARLINK-35978", "group": "last-30-days", "lat": 42.553719523701815, "lon": -16.98549736827871, "alt_km": 336.06981096668096, "timestamp": "2025-12-04T05:42:42.159320+00:00", "meta": {"OBJECT_NAME": "STARLINK-35978", "OBJECT_ID": "2025-270P", "EPOCH": "2025-12-03T18:39:27.405792", "MEAN_MOTION": 15.76369941, "ECCENTRICITY": 0.00054388, "INCLINATION": 42.9974, "RA_OF_ASC_NODE": 245.9815, "ARG_OF_PERICENTER": 235.9116, "MEAN_ANOMALY": 124.1238, "EPHEMERIS_TYPE": 0, "CLASSIFICATION_TYPE": "U", "NORAD_CAT_ID": 66601, "ELEMENT_SET_NO": 999, "REV_AT_EPOCH": 278, "BSTAR": 0.0017194643, "MEAN_MOTION_DOT": 0.00289478, "MEAN_MOTION_DDOT": 0}, "tle": {"line1": "1 66601U 25270P   25337.77740053  .00289478  00000+0  17195-2 0  9990", "line2": "2 66601  42.9974 245.9815 0005438 235.9116 124.1238 15.76369941  2786"}}, "geometry": {"type": "Point", "coordinates": [-16.98549736827871, 42.553719523701815]}}, {"type": "Feature", "properties": {"norad_id": 66602, "name": "STARLINK-36050", "group": "last-30-days", "lat": 41.80547807864355, "lon": -10.525302119185625, "alt_km": 331.7545201948624, "timestamp": "2025-12-04T05:42:42.159330+00:00", "meta": {"OBJECT_NAME": "STARLINK-36050", "OBJECT_ID": "2025-270Q", "EPOCH": "2025-12-03T11:02:45.965472", "MEAN_MOTION": 15.77499641, "ECCENTRICITY": 0.00028515, "INCLINATION": 42.9978, "RA_OF_ASC_NODE": 247.9037, "ARG_OF_PERICENTER": 352.3597, "MEAN_ANOMALY": 7.7229, "EPHEMERIS_TYPE": 0, "CLASSIFICATION_TYPE": "U", "NORAD_CAT_ID": 66602, "ELEMENT_SET_NO": 999, "REV_AT_EPOCH": 279, "BSTAR": -0.00057894064, "MEAN_MOTION_DOT": -0.00098533, "MEAN_MOTION_DDOT": 0}, "tle": {"line1": "1 66602U 25270Q   25337.46025423 -.00098533  00000+0 -57894-3 0  9997", "line2": "2 66602  42.9978 247.9037 0002851 352.3597   7.7229 15.77499641  2791"}}, "geometry": {"type": "Point", "coordinates": [-10.525302119185625, 41.80547807864355]}}]}